[{"OBJECT_NAME":"M2 PATHFINDER","OBJECT_ID":"2020-037E","EPOCH":"2026-04-27T02:28:24.083328","MEAN_MOTION":15.04446015,"ECCENTRICITY":0.00106996,"INCLINATION":97.8165,"RA_OF_ASC_NODE":307.7644,"ARG_OF_PERICENTER":333.3097,"MEAN_ANOMALY":26.7577,"EPHEMERIS_TYPE":0,"CLASSIFICATION_TYPE":"U","NORAD_CAT_ID":45727,"ELEMENT_SET_NO":999,"REV_AT_EPOCH":31781,"BSTAR":0.00013191233,"MEAN_MOTION_DOT":1.782e-5,"MEAN_MOTION_DDOT":0},{"OBJECT_NAME":"GAOFEN DUOMO (GFDM)","OBJECT_ID":"2020-042A","EPOCH":"2026-04-27T07:47:33.247968","MEAN_MOTION":14.76807671,"ECCENTRICITY":0.00096671,"INCLINATION":97.7782,"RA_OF_ASC_NODE":179.0532,"ARG_OF_PERICENTER":233.7767,"MEAN_ANOMALY":126.255,"EPHEMERIS_TYPE":0,"CLASSIFICATION_TYPE":"U","NORAD_CAT_ID":45856,"ELEMENT_SET_NO":999,"REV_AT_EPOCH":31350,"BSTAR":0.00010478832,"MEAN_MOTION_DOT":6.86e-6,"MEAN_MOTION_DDOT":0},{"OBJECT_NAME":"ZIYUAN 3-03 (ZY 3-03)","OBJECT_ID":"2020-051A","EPOCH":"2026-04-27T06:40:01.574400","MEAN_MOTION":15.21344956,"ECCENTRICITY":0.00069159,"INCLINATION":97.286,"RA_OF_ASC_NODE":186.6391,"ARG_OF_PERICENTER":119.6308,"MEAN_ANOMALY":240.5617,"EPHEMERIS_TYPE":0,"CLASSIFICATION_TYPE":"U","NORAD_CAT_ID":45939,"ELEMENT_SET_NO":999,"REV_AT_EPOCH":31960,"BSTAR":0.0002466047,"MEAN_MOTION_DOT":5.46e-5,"MEAN_MOTION_DDOT":0},{"OBJECT_NAME":"NEMO-HD","OBJECT_ID":"2020-061F","EPOCH":"2026-04-27T06:09:14.777856","MEAN_MOTION":15.43556496,"ECCENTRICITY":0.00015145,"INCLINATION":97.1962,"RA_OF_ASC_NODE":179.7531,"ARG_OF_PERICENTER":132.5616,"MEAN_ANOMALY":227.5761,"EPHEMERIS_TYPE":0,"CLASSIFICATION_TYPE":"U","NORAD_CAT_ID":46277,"ELEMENT_SET_NO":999,"REV_AT_EPOCH":31412,"BSTAR":0.00027980647,"MEAN_MOTION_DOT":0.00012484,"MEAN_MOTION_DDOT":0},{"OBJECT_NAME":"3CAT-5A","OBJECT_ID":"2020-061W","EPOCH":"2026-04-27T03:34:24.839904","MEAN_MOTION":15.44519104,"ECCENTRICITY":6.463e-5,"INCLINATION":97.2447,"RA_OF_ASC_NODE":180.1523,"ARG_OF_PERICENTER":26.0477,"MEAN_ANOMALY":334.0804,"EPHEMERIS_TYPE":0,"CLASSIFICATION_TYPE":"U","NORAD_CAT_ID":46292,"ELEMENT_SET_NO":999,"REV_AT_EPOCH":31314,"BSTAR":0.0004312332,"MEAN_MOTION_DOT":0.0001994,"MEAN_MOTION_DDOT":0},{"OBJECT_NAME":"3CAT-5B","OBJECT_ID":"2020-061X","EPOCH":"2026-04-27T02:39:30.695616","MEAN_MOTION":15.45756354,"ECCENTRICITY":7.234e-5,"INCLINATION":97.2443,"RA_OF_ASC_NODE":181,"ARG_OF_PERICENTER":3.5134,"MEAN_ANOMALY":356.612,"EPHEMERIS_TYPE":0,"CLASSIFICATION_TYPE":"U","NORAD_CAT_ID":46293,"ELEMENT_SET_NO":999,"REV_AT_EPOCH":31316,"BSTAR":0.00039119074,"MEAN_MOTION_DOT":0.00018856,"MEAN_MOTION_DDOT":0},{"OBJECT_NAME":"NAPA-1","OBJECT_ID":"2020-061BA","EPOCH":"2026-04-27T07:46:12.859680","MEAN_MOTION":15.62013433,"ECCENTRICITY":0.00018729,"INCLINATION":97.2506,"RA_OF_ASC_NODE":190.0677,"ARG_OF_PERICENTER":146.1799,"MEAN_ANOMALY":213.9579,"EPHEMERIS_TYPE":0,"CLASSIFICATION_TYPE":"U","NORAD_CAT_ID":46320,"ELEMENT_SET_NO":999,"REV_AT_EPOCH":31378,"BSTAR":0.00067086786,"MEAN_MOTION_DOT":0.00058741,"MEAN_MOTION_DDOT":0},{"OBJECT_NAME":"JILIN-1 GAOFEN 3B","OBJECT_ID":"2020-065A","EPOCH":"2026-04-26T11:05:46.239072","MEAN_MOTION":16.34350985,"ECCENTRICITY":0.00106436,"INCLINATION":97.1986,"RA_OF_ASC_NODE":177.393,"ARG_OF_PERICENTER":249.4308,"MEAN_ANOMALY":110.5848,"EPHEMERIS_TYPE":0,"CLASSIFICATION_TYPE":"U","NORAD_CAT_ID":46454,"ELEMENT_SET_NO":999,"REV_AT_EPOCH":31233,"BSTAR":0.00087139442,"MEAN_MOTION_DOT":0.05875672,"MEAN_MOTION_DDOT":2.402103e-6},{"OBJECT_NAME":"JILIN-1 GAOFEN 3E","OBJECT_ID":"2020-065D","EPOCH":"2026-04-27T07:34:46.194816","MEAN_MOTION":15.5828566,"ECCENTRICITY":0.00105834,"INCLINATION":97.2327,"RA_OF_ASC_NODE":168.9466,"ARG_OF_PERICENTER":357.3913,"MEAN_ANOMALY":2.7286,"EPHEMERIS_TYPE":0,"CLASSIFICATION_TYPE":"U","NORAD_CAT_ID":46457,"ELEMENT_SET_NO":999,"REV_AT_EPOCH":31182,"BSTAR":0.00077731732,"MEAN_MOTION_DOT":0.00059224,"MEAN_MOTION_DDOT":0},{"OBJECT_NAME":"JILIN-1 GAOFEN 3F","OBJECT_ID":"2020-065E","EPOCH":"2026-04-27T06:21:11.504736","MEAN_MOTION":15.56268924,"ECCENTRICITY":0.00118015,"INCLINATION":97.2279,"RA_OF_ASC_NODE":166.4421,"ARG_OF_PERICENTER":344.2893,"MEAN_ANOMALY":15.7994,"EPHEMERIS_TYPE":0,"CLASSIFICATION_TYPE":"U","NORAD_CAT_ID":46458,"ELEMENT_SET_NO":999,"REV_AT_EPOCH":31177,"BSTAR":0.00070719116,"MEAN_MOTION_DOT":0.0004995,"MEAN_MOTION_DDOT":0},{"OBJECT_NAME":"JILIN-1 GAOFEN 3G","OBJECT_ID":"2020-065F","EPOCH":"2026-04-27T07:35:36.599712","MEAN_MOTION":15.63515353,"ECCENTRICITY":0.0010665,"INCLINATION":97.2355,"RA_OF_ASC_NODE":172.5846,"ARG_OF_PERICENTER":225.716,"MEAN_ANOMALY":134.3225,"EPHEMERIS_TYPE":0,"CLASSIFICATION_TYPE":"U","NORAD_CAT_ID":46459,"ELEMENT_SET_NO":999,"REV_AT_EPOCH":31197,"BSTAR":0.00083306425,"MEAN_MOTION_DOT":0.00077734,"MEAN_MOTION_DDOT":0},{"OBJECT_NAME":"JILIN-1 GAOFEN 3H","OBJECT_ID":"2020-065G","EPOCH":"2026-04-27T06:19:50.659392","MEAN_MOTION":15.61297146,"ECCENTRICITY":0.00090174,"INCLINATION":97.23,"RA_OF_ASC_NODE":169.1094,"ARG_OF_PERICENTER":162.5208,"MEAN_ANOMALY":197.6362,"EPHEMERIS_TYPE":0,"CLASSIFICATION_TYPE":"U","NORAD_CAT_ID":46460,"ELEMENT_SET_NO":999,"REV_AT_EPOCH":31192,"BSTAR":0.00075095864,"MEAN_MOTION_DOT":0.00064134,"MEAN_MOTION_DDOT":0},{"OBJECT_NAME":"JILIN-1 GAOFEN 3J","OBJECT_ID":"2020-065J","EPOCH":"2026-04-27T06:45:18.105120","MEAN_MOTION":16.00025442,"ECCENTRICITY":0.00064091,"INCLINATION":97.2253,"RA_OF_ASC_NODE":176.9507,"ARG_OF_PERICENTER":225.8003,"MEAN_ANOMALY":134.275,"EPHEMERIS_TYPE":0,"CLASSIFICATION_TYPE":"U","NORAD_CAT_ID":46462,"ELEMENT_SET_NO":999,"REV_AT_EPOCH":31237,"BSTAR":0.0010993954,"MEAN_MOTION_DOT":0.00557575,"MEAN_MOTION_DDOT":0.00013900615},{"OBJECT_NAME":"HAIYANG-2C","OBJECT_ID":"2020-066A","EPOCH":"2026-04-27T06:29:09.181824","MEAN_MOTION":13.8337462,"ECCENTRICITY":0.00107671,"INCLINATION":65.9996,"RA_OF_ASC_NODE":342.0572,"ARG_OF_PERICENTER":242.8913,"MEAN_ANOMALY":117.1058,"EPHEMERIS_TYPE":0,"CLASSIFICATION_TYPE":"U","NORAD_CAT_ID":46469,"ELEMENT_SET_NO":999,"REV_AT_EPOCH":28245,"BSTAR":-2.0130573e-5,"MEAN_MOTION_DOT":-1.03e-6,"MEAN_MOTION_DDOT":0},{"OBJECT_NAME":"HJ-2A","OBJECT_ID":"2020-067A","EPOCH":"2026-04-25T20:23:46.079232","MEAN_MOTION":14.76541081,"ECCENTRICITY":0.00048981,"INCLINATION":97.8825,"RA_OF_ASC_NODE":195.4547,"ARG_OF_PERICENTER":79.4293,"MEAN_ANOMALY":280.7469,"EPHEMERIS_TYPE":0,"CLASSIFICATION_TYPE":"U","NORAD_CAT_ID":46478,"ELEMENT_SET_NO":999,"REV_AT_EPOCH":30053,"BSTAR":1.3716601e-5,"MEAN_MOTION_DOT":4.6e-7,"MEAN_MOTION_DDOT":0},{"OBJECT_NAME":"HJ-2B","OBJECT_ID":"2020-067B","EPOCH":"2026-04-27T05:47:17.729952","MEAN_MOTION":14.76553366,"ECCENTRICITY":0.00013394,"INCLINATION":97.8889,"RA_OF_ASC_NODE":197.7971,"ARG_OF_PERICENTER":77.5657,"MEAN_ANOMALY":282.5703,"EPHEMERIS_TYPE":0,"CLASSIFICATION_TYPE":"U","NORAD_CAT_ID":46479,"ELEMENT_SET_NO":999,"REV_AT_EPOCH":30074,"BSTAR":8.0047749e-5,"MEAN_MOTION_DOT":5.08e-6,"MEAN_MOTION_DDOT":0}]
