M2 PATHFINDER           
1 45727U 20037E   26117.10305652  .00001782  00000+0  13191-3 0  9991
2 45727  97.8165 307.7644 0010699 333.3097  26.7577 15.04446015317811
GAOFEN DUOMO (GFDM)     
1 45856U 20042A   26117.32469037  .00000686  00000+0  10479-3 0  9990
2 45856  97.7782 179.0532 0009667 233.7767 126.2550 14.76807671313500
ZIYUAN 3-03 (ZY 3-03)   
1 45939U 20051A   26117.27779600  .00005460  00000+0  24660-3 0  9998
2 45939  97.2860 186.6391 0006915 119.6308 240.5617 15.21344956319601
NEMO-HD                 
1 46277U 20061F   26117.25642104  .00012484  00000+0  27981-3 0  9994
2 46277  97.1962 179.7531 0001514 132.5616 227.5761 15.43556496314129
3CAT-5A                 
1 46292U 20061W   26117.14889861  .00019940  00000+0  43123-3 0  9992
2 46292  97.2447 180.1523 0000646  26.0477 334.0804 15.44519104313148
3CAT-5B                 
1 46293U 20061X   26117.11077194  .00018856  00000+0  39119-3 0  9993
2 46293  97.2443 181.0000 0000723   3.5134 356.6120 15.45756354313165
NAPA-1                  
1 46320U 20061BA  26117.32375995  .00058741  00000+0  67087-3 0  9999
2 46320  97.2506 190.0677 0001872 146.1799 213.9579 15.62013433313787
JILIN-1 GAOFEN 3B       
1 46454U 20065A   26116.46234073  .05875672  24021-5  87139-3 0  9996
2 46454  97.1986 177.3930 0010643 249.4308 110.5848 16.34350985312332
JILIN-1 GAOFEN 3E       
1 46457U 20065D   26117.31581244  .00059224  00000+0  77732-3 0  9994
2 46457  97.2327 168.9466 0010583 357.3913   2.7286 15.58285660311822
JILIN-1 GAOFEN 3F       
1 46458U 20065E   26117.26471649  .00049950  00000+0  70719-3 0  9999
2 46458  97.2279 166.4421 0011801 344.2893  15.7994 15.56268924311775
JILIN-1 GAOFEN 3G       
1 46459U 20065F   26117.31639583  .00077734  00000+0  83306-3 0  9996
2 46459  97.2355 172.5846 0010665 225.7160 134.3225 15.63515353311973
JILIN-1 GAOFEN 3H       
1 46460U 20065G   26117.26378078  .00064134  00000+0  75096-3 0  9998
2 46460  97.2300 169.1094 0009017 162.5208 197.6362 15.61297146311926
JILIN-1 GAOFEN 3J       
1 46462U 20065J   26117.28145955  .00557575  13901-3  10994-2 0  9997
2 46462  97.2253 176.9507 0006409 225.8003 134.2750 16.00025442312378
HAIYANG-2C              
1 46469U 20066A   26117.27024516 -.00000103  00000+0 -20131-4 0  9993
2 46469  65.9996 342.0572 0010767 242.8913 117.1058 13.83374620282459
HJ-2A                   
1 46478U 20067A   26115.84983888  .00000046  00000+0  13717-4 0  9997
2 46478  97.8825 195.4547 0004898  79.4293 280.7469 14.76541081300532
HJ-2B                   
1 46479U 20067B   26117.24117743  .00000508  00000+0  80048-4 0  9997
2 46479  97.8889 197.7971 0001339  77.5657 282.5703 14.76553366300742
